NORAD_CAT_ID,OBJECT_NAME,OBJECT_TYPE,EPOCH,MEAN_MOTION,ECCENTRICITY,INCLINATION,RA_OF_ASC_NODE,ARG_OF_PERICENTER,MEAN_ANOMALY,BSTAR,MEAN_MOTION_DOT,MEAN_MOTION_DDOT,TLE_LINE0,TLE_LINE1,TLE_LINE2,SEMIMAJOR_AXIS,PERIOD,APOGEE,PERIGEE,DECAYED
49137.0,STARLINK-3055,PAYLOAD,2023-12-31 18:19:51,14.98327655,0.0002815,70.0003,128.8323,268.0528,92.0309,-1.1429e-06,-1.07e-06,0.0,0 STARLINK-3055,1 49137U 21082H   23365.76378809 -.00000107  00000-0 -11429-5 0  9996,2 49137  70.0003 128.8323 0002815 268.0528  92.0309 14.98327655126800,6950.2,96.107,574.022,570.109,0.0
49137.0,STARLINK-3055,PAYLOAD,2024-01-01 13:33:27,14.98333399,0.000294,69.9999,126.8122,263.9637,96.1187,5.0365e-05,5.08e-06,0.0,0 STARLINK-3055,1 49137U 21082H   24001.56490284  .00000508  00000-0  50365-4 0  9998,2 49137  69.9999 126.8122 0002940 263.9637  96.1187 14.98333399126924,6950.182,96.107,574.091,570.004,0.0
49137.0,STARLINK-3055,PAYLOAD,2024-01-01 18:21:51,14.98337005,0.000301,69.9999,126.3071,270.6582,89.4232,6.3992e-05,6.71e-06,0.0,0 STARLINK-3055,1 49137U 21082H   24001.76517942  .00000671  00000-0  63992-4 0  9992,2 49137  69.9999 126.3071 0003010 270.6582  89.4232 14.98337005126952,6950.171,96.107,574.128,569.944,0.0
49137.0,STARLINK-3055,PAYLOAD,2024-01-02 11:59:19,14.98385332,0.0002496,70.0001,124.4551,256.4749,103.6132,-0.0008519,-0.00010257,0.0,0 STARLINK-3055,1 49137U 21082H   24002.49953472 -.00010257  00000-0 -85190-3 0  9991,2 49137  70.0001 124.4551 0002496 256.4749 103.6132 14.98385332127062,6950.022,96.103,573.622,570.152,0.0
49137.0,STARLINK-3055,PAYLOAD,2024-01-02 18:23:51,14.98377629,0.0002638,70.0004,123.7821,262.9239,97.162,-0.00070125,-8.46e-05,0.0,0 STARLINK-3055,1 49137U 21082H   24002.76656864 -.00008460  00000-0 -70125-3 0  9991,2 49137  70.0004 123.7821 0002638 262.9239  97.1620 14.98377629127105,6950.046,96.104,573.744,570.077,0.0
49137.0,STARLINK-3055,PAYLOAD,2024-01-03 12:01:21,14.98326314,0.000255,70.0005,121.9305,258.1241,101.9632,-1.8237e-05,-3.1e-06,0.0,0 STARLINK-3055,1 49137U 21082H   24003.50094604 -.00000310  00000-0 -18237-4 0  9995,2 49137  70.0005 121.9305 0002550 258.1241 101.9632 14.98326314127210,6950.204,96.107,573.842,570.297,0.0
49137.0,STARLINK-3055,PAYLOAD,2024-01-03 13:37:29,14.98327026,0.0002694,70.0003,121.7621,263.1403,96.945,-4.2917e-05,-6.05e-06,0.0,0 STARLINK-3055,1 49137U 21082H   24003.56770638 -.00000605  00000-0 -42917-4 0  9998,2 49137  70.0003 121.7621 0002694 263.1403  96.9450 14.98327026127225,6950.202,96.107,573.939,570.195,0.0
49137.0,STARLINK-3055,PAYLOAD,2024-01-03 16:49:45,14.98327744,0.0002563,70.0004,121.4255,257.8194,102.2678,-1.2034e-05,-2.36e-06,0.0,0 STARLINK-3055,1 49137U 21082H   24003.70122514 -.00000236  00000-0 -12034-4 0  9995,2 49137  70.0004 121.4255 0002563 257.8194 102.2678 14.98327744127240,6950.2,96.107,573.846,570.284,0.0
49137.0,STARLINK-3055,PAYLOAD,2024-01-04 12:03:22,14.98330678,0.0002695,70.0004,119.4059,262.6817,97.4036,7.9542e-06,2e-08,0.0,0 STARLINK-3055,1 49137U 21082H   24004.50234186  .00000002  00000-0  79542-5 0  9990,2 49137  70.0004 119.4059 0002695 262.6817  97.4036 14.98330678127367,6950.191,96.107,573.929,570.183,0.0
49137.0,STARLINK-3055,PAYLOAD,2024-01-04 13:39:30,14.98330038,0.0002826,70.0001,119.2376,267.1273,92.9562,6.8307e-06,-1.1e-07,0.0,0 STARLINK-3055,1 49137U 21082H   24004.56910300 -.00000011  00000-0  68307-5 0  9993,2 49137  70.0001 119.2376 0002826 267.1273  92.9562 14.98330038127371,6950.193,96.107,574.022,570.094,0.0
49137.0,STARLINK-3055,PAYLOAD,2024-01-04 16:51:46,14.98333525,0.0002828,70.0002,118.901,276.7471,83.3367,5.4832e-05,5.61e-06,0.0,0 STARLINK-3055,1 49137U 21082H   24004.70262044  .00000561  00000-0  54832-4 0  9990,2 49137  70.0002 118.9010 0002828 276.7471  83.3367 14.98333525127394,6950.182,96.107,574.013,570.081,0.0
49137.0,STARLINK-3055,PAYLOAD,2024-01-05 12:05:23,14.98330647,0.0002795,70.0005,116.882,265.0949,94.9891,-0.00010099,-1.298e-05,0.0,0 STARLINK-3055,1 49137U 21082H   24005.50374588 -.00001298  00000-0 -10099-3 0  9992,2 49137  70.0005 116.8820 0002795 265.0949  94.9891 14.98330647127513,6950.191,96.107,573.998,570.113,0.0
49137.0,STARLINK-3055,PAYLOAD,2024-01-05 13:41:32,14.98320539,0.0002744,70.0011,116.7148,264.6031,95.4815,1.295e-05,6.2e-07,0.0,0 STARLINK-3055,1 49137U 21082H   24005.57050987  .00000062  00000-0  12950-4 0  9998,2 49137  70.0011 116.7148 0002744 264.6031  95.4815 14.98320539127525,6950.222,96.108,573.994,570.18,0.0
49137.0,STARLINK-3055,PAYLOAD,2024-01-05 16:53:47,14.98325026,0.000288,70.0009,116.3777,271.1583,88.9246,5.2538e-05,5.34e-06,0.0,0 STARLINK-3055,1 49137U 21082H   24005.70402615  .00000534  00000-0  52538-4 0  9992,2 49137  70.0009 116.3777 0002880 271.1583  88.9246 14.98325026127545,6950.208,96.107,574.075,570.072,0.0
49137.0,STARLINK-3055,PAYLOAD,2024-01-06 12:07:24,14.98331574,0.0002893,70.0007,114.3582,269.1495,90.9332,3.7532e-05,3.55e-06,0.0,0 STARLINK-3055,1 49137U 21082H   24006.50514208  .00000355  00000-0  37532-4 0  9991,2 49137  70.0007 114.3582 0002893 269.1495  90.9332 14.98331574127665,6950.188,96.107,574.064,570.042,0.0
49137.0,STARLINK-3055,PAYLOAD,2024-01-06 16:55:48,14.98331237,0.0002722,70.001,113.8538,265.1894,94.8954,5.5017e-05,5.64e-06,0.0,0 STARLINK-3055,1 49137U 21082H   24006.70542163  .00000564  00000-0  55017-4 0  9994,2 49137  70.0010 113.8538 0002722 265.1894  94.8954 14.98331237127696,6950.189,96.107,573.946,570.162,0.0
49137.0,STARLINK-3055,PAYLOAD,2024-01-07 12:09:25,14.98329982,0.0002739,70.001,111.8345,252.7594,107.3266,2.2146e-05,1.71e-06,0.0,0 STARLINK-3055,1 49137U 21082H   24007.50654271  .00000171  00000-0  22146-4 0  9998,2 49137  70.0010 111.8345 0002739 252.7594 107.3266 14.98329982127811,6950.193,96.107,573.962,570.154,0.0
49137.0,STARLINK-3055,PAYLOAD,2024-01-07 13:45:33,14.98329311,0.0002732,70.001,111.666,250.5031,109.5833,5.6976e-05,5.87e-06,0.0,0 STARLINK-3055,1 49137U 21082H   24007.57330220  .00000587  00000-0  56976-4 0  9999,2 49137  70.0010 111.6660 0002732 250.5031 109.5833 14.98329311127825,6950.195,96.107,573.959,570.161,0.0
49137.0,STARLINK-3055,PAYLOAD,2024-01-07 16:57:48,14.98348753,0.0002621,70.0009,111.3283,253.7,106.3871,-0.00026578,-3.264e-05,0.0,0 STARLINK-3055,1 49137U 21082H   24007.70681711 -.00003264  00000-0 -26578-3 0  9999,2 49137  70.0009 111.3283 0002621 253.7000 106.3871 14.98348753127849,6950.135,96.106,573.822,570.178,0.0
49137.0,STARLINK-3055,PAYLOAD,2024-01-08 10:35:17,14.98332811,0.0002546,70.0006,109.4756,258.7543,101.333,4.5053e-05,4.45e-06,0.0,0 STARLINK-3055,1 49137U 21082H   24008.44117833  .00000445  00000-0  45053-4 0  9996,2 49137  70.0006 109.4756 0002546 258.7543 101.3330 14.98332811127957,6950.184,96.107,573.819,570.28,0.0
49137.0,STARLINK-3055,PAYLOAD,2024-01-08 13:47:32,14.98401308,0.0002677,70.0006,109.139,256.4517,103.6344,-0.0011031,-0.00013254,0.0,0 STARLINK-3055,1 49137U 21082H   24008.57468392 -.00013254  00000-0 -11031-2 0  9990,2 49137  70.0006 109.1390 0002677 256.4517 103.6344 14.98401308127979,6949.972,96.102,573.698,569.977,0.0
49137.0,STARLINK-3055,PAYLOAD,2024-01-08 16:59:48,14.98401574,0.0002551,70.0007,108.8023,256.7939,103.2935,-0.0010863,-0.00013054,0.0,0 STARLINK-3055,1 49137U 21082H   24008.70819888 -.00013054  00000-0 -10863-2 0  9995,2 49137  70.0007 108.8023 0002551 256.7939 103.2935 14.98401574127990,6949.972,96.102,573.61,570.064,0.0
49137.0,STARLINK-3055,PAYLOAD,2024-01-09 12:13:26,14.98328493,0.0002892,69.9999,106.782,261.0305,99.0527,0.00010994,1.219e-05,0.0,0 STARLINK-3055,1 49137U 21082H   24009.50933723  .00001219  00000-0  10994-3 0  9993,2 49137  69.9999 106.7820 0002892 261.0305  99.0527 14.98328493128115,6950.198,96.107,574.073,570.053,0.0
49137.0,STARLINK-3055,PAYLOAD,2024-01-09 13:49:34,14.98332047,0.0002886,70.0002,106.6147,262.2235,97.8596,1.5015e-05,8.6e-07,0.0,0 STARLINK-3055,1 49137U 21082H   24009.57609721  .00000086  00000-0  15015-4 0  9999,2 49137  70.0002 106.6147 0002886 262.2235  97.8596 14.98332047128125,6950.187,96.107,574.057,570.046,0.0
49137.0,STARLINK-3055,PAYLOAD,2024-01-09 17:01:50,14.9833211,0.0002623,70.0007,106.2788,247.6166,112.4715,4.5526e-05,4.5e-06,0.0,0 STARLINK-3055,1 49137U 21082H   24009.70961674  .00000450  00000-0  45526-4 0  9997,2 49137  70.0007 106.2788 0002623 247.6166 112.4715 14.98332110128146,6950.186,96.107,573.874,570.228,0.0
49137.0,STARLINK-3055,PAYLOAD,2024-01-10 10:39:19,14.98330483,0.0002841,70.0004,104.426,263.9904,96.0931,-2.1453e-05,-3.49e-06,0.0,0 STARLINK-3055,1 49137U 21082H   24010.44397839 -.00000349  00000-0 -21453-4 0  9998,2 49137  70.0004 104.4260 0002841 263.9904  96.0931 14.98330483128251,6950.191,96.107,574.031,570.082,0.0
49137.0,STARLINK-3055,PAYLOAD,2024-01-10 17:03:51,14.98332205,0.0002864,70.0006,103.7531,262.9404,97.1429,1.0498e-05,3.2e-07,0.0,0 STARLINK-3055,1 49137U 21082H   24010.71101619  .00000032  00000-0  10498-4 0  9991,2 49137  70.0006 103.7531 0002864 262.9404  97.1429 14.98332205128297,6950.186,96.107,574.042,570.061,0.0
49137.0,STARLINK-3055,PAYLOAD,2024-01-11 13:53:36,14.98326355,0.0002616,70.0009,101.5641,259.7266,100.3598,5.7015e-05,5.87e-06,0.0,0 STARLINK-3055,1 49137U 21082H   24011.57889902  .00000587  00000-0  57015-4 0  9995,2 49137  70.0009 101.5641 0002616 259.7266 100.3598 14.98326355128421,6950.204,96.107,573.887,570.251,0.0
49137.0,STARLINK-3055,PAYLOAD,2024-01-11 15:29:44,14.9832696,0.0002596,70.0009,101.396,258.726,101.3608,6.4386e-05,6.75e-06,0.0,0 STARLINK-3055,1 49137U 21082H   24011.64565861  .00000675  00000-0  64386-4 0  9995,2 49137  70.0009 101.3960 0002596 258.7260 101.3608 14.98326960128439,6950.202,96.107,573.872,570.263,0.0
49137.0,STARLINK-3055,PAYLOAD,2024-01-12 12:19:30,14.98323795,0.0002576,70.0006,99.208,256.8388,103.2484,4.2121e-05,4.1e-06,0.0,0 STARLINK-3055,1 49137U 21082H   24012.51354262  .00000410  00000-0  42121-4 0  9993,2 49137  70.0006  99.2080 0002576 256.8388 103.2484 14.98323795128562,6950.212,96.107,573.867,570.287,0.0
